     2              NAVIGATION DATA                         RINEX VERSION / TYPE
CCRINEXN V1.6.0 UX  CDDIS               23-JAN-15 18:39     PGM / RUN BY / DATE 
IGS BROADCAST EPHEMERIS FILE                                COMMENT             
    0.1490D-07 -0.7451D-08 -0.5960D-07  0.1192D-06          ION ALPHA           
    0.1249D+06 -0.1311D+06  0.0000D+00 -0.6554D+05          ION BETA            
   -0.186264514923D-08-0.444089209850D-14    61440     1829 DELTA-UTC: A0,A1,T,W
    16                                                      LEAP SECONDS        
                                                            END OF HEADER       
 1 15  1 23  0  0  0.0-0.987015664578D-05 0.454747350886D-12 0.000000000000D+00
    0.990000000000D+02-0.954687500000D+02 0.411910014848D-08-0.298024193854D+01
   -0.486336648464D-05 0.380055292044D-02 0.133495777845D-04 0.515367884827D+04
    0.432000000000D+06 0.391155481338D-07 0.326722649584D+00-0.298023223877D-07
    0.962170011409D+00 0.122187500000D+03 0.424414728726D+00-0.781925427476D-08
   -0.585738684082D-10 0.100000000000D+01 0.182800000000D+04 0.000000000000D+00
    0.200000000000D+01 0.000000000000D+00 0.558793544769D-08 0.990000000000D+02
    0.427470000000D+06 0.400000000000D+01 0.000000000000D+00 0.000000000000D+00
 3 15  1 23  0  0  0.0 0.165370758623D-03 0.237605490838D-10 0.000000000000D+00
    0.610000000000D+02 0.656875000000D+02 0.470662462124D-08-0.588178734885D+00
    0.343285501003D-05 0.962925259955D-03 0.913627445698D-05 0.515375970078D+04
    0.432000000000D+06 0.782310962677D-07 0.136701920561D+01 0.298023223877D-07
    0.959064945842D+00 0.198500000000D+03-0.301161540902D+01-0.816962601200D-08
    0.715386941595D-09 0.100000000000D+01 0.182800000000D+04 0.000000000000D+00
    0.200000000000D+01 0.000000000000D+00 0.139698386192D-08 0.610000000000D+02
    0.426528000000D+06 0.400000000000D+01 0.000000000000D+00 0.000000000000D+00
 4 15  1 23  0  0  0.0-0.602658838034D-05-0.568434188608D-12 0.000000000000D+00
    0.160000000000D+02-0.935312500000D+02 0.449733018900D-08 0.313637679180D+01
   -0.481121242046D-05 0.109960987465D-01 0.131409615278D-04 0.515374740028D+04
    0.432000000000D+06 0.800937414169D-07 0.307305753387D+00-0.838190317154D-07
    0.939799970761D+00 0.111250000000D+03 0.105164550144D+01-0.788461414011D-08
   -0.950039572962D-10 0.100000000000D+01 0.182800000000D+04 0.000000000000D+00
    0.200000000000D+01 0.000000000000D+00-0.651925802231D-08 0.160000000000D+02
    0.425730000000D+06 0.400000000000D+01 0.000000000000D+00 0.000000000000D+00
 5 15  1 23  0  0  0.0-0.289229210466D-03 0.522959453519D-11 0.000000000000D+00
    0.710000000000D+02 0.533125000000D+02 0.495627805463D-08-0.133466683080D-01
    0.292249023914D-05 0.403409358114D-02 0.896863639355D-05 0.515375666428D+04
    0.432000000000D+06 0.540167093277D-07 0.136161900298D+01-0.111758708954D-07
    0.946352793381D+00 0.198062500000D+03 0.422219585038D+00-0.830713187128D-08
    0.642883912771D-09 0.100000000000D+01 0.182800000000D+04 0.000000000000D+00
    0.200000000000D+01 0.000000000000D+00-0.107102096081D-07 0.710000000000D+02
    0.424740000000D+06 0.400000000000D+01 0.000000000000D+00 0.000000000000D+00
 6 15  1 23  0  0  0.0 0.592526048422D-04 0.112549969344D-10 0.000000000000D+00
    0.930000000000D+02-0.102343750000D+03 0.414767276722D-08-0.252943724876D+00
   -0.524893403053D-05 0.447760452516D-03 0.123847275972D-04 0.515369121742D+04
    0.432000000000D+06 0.484287738800D-07 0.318193429028D+00-0.132247805595D-06
    0.962076127178D+00 0.143156250000D+03 0.247726048631D+01-0.785532720591D-08
   -0.133934150323D-09 0.100000000000D+01 0.182800000000D+04 0.000000000000D+00
    0.200000000000D+01 0.000000000000D+00 0.465661287308D-08 0.930000000000D+02
    0.424818000000D+06 0.400000000000D+01 0.000000000000D+00 0.000000000000D+00
 7 15  1 23  0  0  0.0 0.433883629739D-03 0.329691829393D-11 0.000000000000D+00
    0.340000000000D+02 0.731250000000D+01 0.408695595241D-08 0.275928045117D+01
    0.374391674995D-06 0.797820941079D-02 0.138841569424D-04 0.515374463081D+04
    0.432000000000D+06-0.894069671631D-07-0.279646152357D+01-0.126659870148D-06
    0.971829919886D+00 0.117531250000D+03-0.275087656759D+01-0.764960435101D-08
   -0.391802034413D-09 0.100000000000D+01 0.182800000000D+04 0.000000000000D+00
    0.200000000000D+01 0.000000000000D+00-0.111758708954D-07 0.340000000000D+02
    0.431208000000D+06 0.400000000000D+01 0.000000000000D+00 0.000000000000D+00
 8 15  1 23  0  0  0.0 0.172676518559D-04 0.227373675443D-12 0.000000000000D+00
    0.270000000000D+02 0.370000000000D+02 0.351228915808D-08-0.210709044983D+01
    0.187940895557D-05 0.147863971070D-01 0.135395675898D-04 0.515221774101D+04
    0.432000000000D+06 0.191852450371D-06-0.269182732907D+01-0.227242708206D-06
    0.995360648515D+00 0.134312500000D+03-0.267213838716D+01-0.740137972574D-08
   -0.131791203918D-09 0.100000000000D+01 0.182800000000D+04 0.000000000000D+00
    0.280000000000D+01 0.630000000000D+02-0.512227416039D-08 0.270000000000D+02
    0.424818000000D+06 0.400000000000D+01 0.000000000000D+00 0.000000000000D+00
10 15  1 23  0  0  0.0-0.159957911819D-03-0.170530256582D-11 0.000000000000D+00
    0.570000000000D+02 0.561250000000D+02 0.520521681817D-08 0.330879899962D+00
    0.301375985146D-05 0.145132453181D-01 0.882707536221D-05 0.515365288544D+04
    0.432000000000D+06-0.894069671631D-07 0.137745373945D+01 0.158324837685D-06
    0.941134147661D+00 0.201312500000D+03 0.918400934674D+00-0.859428655796D-08
    0.574309636587D-09 0.100000000000D+01 0.182800000000D+04 0.000000000000D+00
    0.200000000000D+01 0.000000000000D+00-0.325962901115D-08 0.570000000000D+02
    0.424818000000D+06 0.400000000000D+01 0.000000000000D+00 0.000000000000D+00
11 15  1 23  0  0  0.0-0.552697572857D-03-0.261479726760D-11 0.000000000000D+00
    0.620000000000D+02-0.145531250000D+03 0.579202685813D-08 0.282842063089D+01
   -0.739283859730D-05 0.156075524865D-01 0.900216400623D-05 0.515373070526D+04
    0.432000000000D+06 0.189989805222D-06-0.147373079938D-01-0.484287738800D-07
    0.892653181491D+00 0.166031250000D+03 0.137771844862D+01-0.850678283371D-08
   -0.383587411834D-09 0.100000000000D+01 0.182800000000D+04 0.000000000000D+00
    0.200000000000D+01 0.000000000000D+00-0.121071934700D-07 0.620000000000D+02
    0.424740000000D+06 0.400000000000D+01 0.000000000000D+00 0.000000000000D+00
12 15  1 23  0  0  0.0 0.263466034085D-03 0.306954461848D-11 0.000000000000D+00
    0.350000000000D+02 0.105437500000D+03 0.392516349881D-08 0.230838161969D+01
    0.536441802979D-05 0.518839037977D-02 0.638887286186D-05 0.515375122261D+04
    0.432000000000D+06-0.178813934326D-06-0.172994997881D+01-0.558793544769D-07
    0.988907781236D+00 0.270093750000D+03 0.503195128966D+00-0.792568727955D-08
    0.372158359032D-09 0.100000000000D+01 0.182800000000D+04 0.000000000000D+00
    0.200000000000D+01 0.000000000000D+00-0.125728547573D-07 0.350000000000D+02
    0.426036000000D+06 0.400000000000D+01 0.000000000000D+00 0.000000000000D+00
14 15  1 23  0  0  0.0 0.943420454860D-04-0.352429196937D-11 0.000000000000D+00
    0.930000000000D+02-0.364375000000D+02 0.492627662777D-08-0.937412852722D+00
   -0.172667205334D-05 0.773052405566D-02 0.556372106075D-05 0.515376959038D+04
    0.432000000000D+06-0.838190317154D-07 0.249114192871D+01 0.167638063431D-06
    0.967620687640D+00 0.277125000000D+03-0.196864233027D+01-0.836677708128D-08
   -0.407516974718D-09 0.100000000000D+01 0.182800000000D+04 0.000000000000D+00
    0.200000000000D+01 0.000000000000D+00-0.931322574616D-08 0.930000000000D+02
    0.424818000000D+06 0.400000000000D+01 0.000000000000D+00 0.000000000000D+00
15 15  1 23  0  0  0.0-0.227900687605D-03-0.227373675443D-11 0.000000000000D+00
    0.620000000000D+02-0.257500000000D+02 0.570238034570D-08-0.159431370922D+01
   -0.156089663506D-05 0.704598112497D-02 0.394135713577D-05 0.515357415199D+04
    0.432000000000D+06 0.987201929092D-07 0.237117195959D+01-0.521540641785D-07
    0.934145998656D+00 0.285468750000D+03 0.364043942680D+00-0.876750849699D-08
   -0.113576162364D-09 0.100000000000D+01 0.182800000000D+04 0.000000000000D+00
    0.200000000000D+01 0.000000000000D+00-0.107102096081D-07 0.620000000000D+02
    0.424740000000D+06 0.400000000000D+01 0.000000000000D+00 0.000000000000D+00
16 15  1 23  0  0  0.0-0.162729993463D-03 0.318323145621D-11 0.000000000000D+00
    0.420000000000D+02 0.109000000000D+03 0.406766943476D-08 0.174691319566D+00
    0.565685331821D-05 0.797103275545D-02 0.575557351112D-05 0.515373463821D+04
    0.432000000000D+06 0.147148966789D-06-0.171129956684D+01 0.633299350738D-07
    0.989462671915D+00 0.280312500000D+03 0.232125091296D+00-0.817712632442D-08
    0.363229415677D-09 0.100000000000D+01 0.182800000000D+04 0.000000000000D+00
    0.200000000000D+01 0.000000000000D+00-0.102445483208D-07 0.420000000000D+02
    0.424818000000D+06 0.400000000000D+01 0.000000000000D+00 0.000000000000D+00
17 15  1 23  0  0  0.0-0.151500105858D-03-0.216004991671D-11 0.000000000000D+00
    0.900000000000D+02-0.650312500000D+02 0.479377110838D-08-0.753262360447D+00
   -0.327825546265D-05 0.100296451710D-01 0.272877514362D-05 0.515369893265D+04
    0.432000000000D+06-0.223517417908D-07-0.682377013090D+00 0.219792127609D-06
    0.971193238920D+00 0.334031250000D+03-0.204849823423D+01-0.866107505425D-08
   -0.297869550319D-09 0.100000000000D+01 0.182800000000D+04 0.000000000000D+00
    0.200000000000D+01 0.000000000000D+00-0.107102096081D-07 0.900000000000D+02
    0.424818000000D+06 0.400000000000D+01 0.000000000000D+00 0.000000000000D+00
